{
    "links": {
        "self": "http://www.neowsapp.com/rest/v1/neo/3624742?api_key=iIulBulltgU6a56xZRHN4H3l9WmuAYTsLGpBGhQ2"
    },
    "id": "3624742",
    "neo_reference_id": "3624742",
    "name": "(2013 BD18)",
    "designation": "2013 BD18",
    "nasa_jpl_url": "http://ssd.jpl.nasa.gov/sbdb.cgi?sstr=3624742",
    "absolute_magnitude_h": 21.3,
    "estimated_diameter": {
        "kilometers": {
            "estimated_diameter_min": 0.1460679643,
            "estimated_diameter_max": 0.3266178974
        },
        "meters": {
            "estimated_diameter_min": 146.0679642714,
            "estimated_diameter_max": 326.6178974458
        },
        "miles": {
            "estimated_diameter_min": 0.090762397,
            "estimated_diameter_max": 0.2029508896
        },
        "feet": {
            "estimated_diameter_min": 479.2256199,
            "estimated_diameter_max": 1071.581062656
        }
    },
    "is_potentially_hazardous_asteroid": true,
    "close_approach_data": [
        {
            "close_approach_date": "2013-01-24",
            "close_approach_date_full": "2013-Jan-24 01:47",
            "epoch_date_close_approach": 1358992020000,
            "relative_velocity": {
                "kilometers_per_second": "15.1327416655",
                "kilometers_per_hour": "54477.8699958724",
                "miles_per_hour": "33850.4298316019"
            },
            "miss_distance": {
                "astronomical": "0.1449355545",
                "lunar": "56.3799307005",
                "kilometers": "21682050.240468915",
                "miles": "13472601.286604427"
            },
            "orbiting_body": "Earth"
        }
    ],
    "orbital_data": {
        "orbit_id": "6",
        "orbit_determination_date": "2017-04-06 08:47:08",
        "first_observation_date": "2013-01-16",
        "last_observation_date": "2013-01-24",
        "data_arc_in_days": 8,
        "observations_used": 35,
        "orbit_uncertainty": "8",
        "minimum_orbit_intersection": ".0476696",
        "jupiter_tisserand_invariant": "3.188",
        "epoch_osculation": "2456310.5",
        "eccentricity": ".6617708744759069",
        "semi_major_axis": "2.33358638758114",
        "inclination": "17.36935722622807",
        "ascending_node_longitude": "285.8891725186546",
        "orbital_period": "1302.069754907848",
        "perihelion_distance": ".7892868832064966",
        "perihelion_argument": "250.8522651631483",
        "aphelion_distance": "3.877885891955784",
        "perihelion_time": "2456355.288127292809",
        "mean_anomaly": "347.6168494317324",
        "mean_motion": ".276482883227311",
        "equinox": "J2000",
        "orbit_class": {
            "orbit_class_type": "APO",
            "orbit_class_description": "Near-Earth asteroid orbits which cross the Earth’s orbit similar to that of 1862 Apollo",
            "orbit_class_range": "a (semi-major axis) > 1.0 AU; q (perihelion) < 1.017 AU"
        }
    },
    "is_sentry_object": false
}